[{"OBJECT_NAME":"STARLINK-11583 [DTC]","OBJECT_ID":"2025-031L","EPOCH":"2026-03-09T04:58:03.080640","MEAN_MOTION":15.70868926,"ECCENTRICITY":0.00016559,"INCLINATION":43.0008,"RA_OF_ASC_NODE":4.6213,"ARG_OF_PERICENTER":274.6917,"MEAN_ANOMALY":85.3761,"EPHEMERIS_TYPE":0,"CLASSIFICATION_TYPE":"U","NORAD_CAT_ID":62991,"ELEMENT_SET_NO":999,"REV_AT_EPOCH":6267,"BSTAR":0.0013415739,"MEAN_MOTION_DOT":0.00175592,"MEAN_MOTION_DDOT":0},{"OBJECT_NAME":"BREEZE-M DEB [TANK]","OBJECT_ID":"2017-057C","EPOCH":"2026-03-09T09:12:06.408864","MEAN_MOTION":5.412705,"ECCENTRICITY":0.50998205,"INCLINATION":49.6982,"RA_OF_ASC_NODE":36.879,"ARG_OF_PERICENTER":240.5913,"MEAN_ANOMALY":59.4495,"EPHEMERIS_TYPE":0,"CLASSIFICATION_TYPE":"U","NORAD_CAT_ID":42944,"ELEMENT_SET_NO":999,"REV_AT_EPOCH":16275,"BSTAR":0.00054369595,"MEAN_MOTION_DOT":1.764e-5,"MEAN_MOTION_DDOT":0}]
